IRIDIUM 39              
1 25042U 97069D   25086.51185872  .00002372  00000+0  61887-3 0  9998
2 25042  86.3877 246.1335 0016737 214.1338 145.8792 14.49044716437138
IRIDIUM 38              
1 25043U 97069E   25086.54962370  .00001361  00000+0  44372-3 0  9995
2 25043  86.3897 267.5102 0002974  50.1380 310.0080 14.38000737434229
IRIDIUM 42              
1 25077U 97077A   25086.80412213  .00001251  00000+0  42226-3 0  9990
2 25077  86.3900 273.4790 0002464  74.0775 286.0693 14.36245833429511
IRIDIUM 44              
1 25078U 97077B   25086.70024787  .00001454  00000+0  45470-3 0  9994
2 25078  86.3911 255.6428 0000914  28.9491 331.1759 14.40132149432008
IRIDIUM 45              
1 25104U 97082A   25086.52341569  .00034226  00000+0  13536-2 0  9990
2 25104  86.3538  87.4487 0121381 277.0135  81.7315 15.18664534439639
IRIDIUM 24              
1 25105U 97082B   25086.77773114  .00001254  00000+0  37651-3 0  9993
2 25105  86.3868 114.8450 0011059 359.2066   0.9115 14.41975525431731
IRIDIUM 51              
1 25262U 98018A   25086.75630116  .00047227  00000+0  12639-2 0  9997
2 25262  86.3805  95.9573 0098181 199.7313 160.0130 15.33000509434746
IRIDIUM 57              
1 25273U 98019B   25086.49679964  .00001028  00000+0  34879-3 0  9995
2 25273  86.4036 179.4604 0002167  92.9791 267.1654 14.35813983413062
