<?xml version="1.0" encoding="UTF-8"?>
<ndm xmlns:xsi="http://www.w3.org/2001/XMLSchema-instance" xsi:noNamespaceSchemaLocation="https://sanaregistry.org/r/ndmxml_unqualified/ndmxml-2.0.0-master-2.0.xsd">
<omm id="CCSDS_OMM_VERS" version="2.0">
<header><CREATION_DATE/><ORIGINATOR/></header><body><segment><metadata><OBJECT_NAME>IRIDIUM 39</OBJECT_NAME><OBJECT_ID>1997-069D</OBJECT_ID><CENTER_NAME>EARTH</CENTER_NAME><REF_FRAME>TEME</REF_FRAME><TIME_SYSTEM>UTC</TIME_SYSTEM><MEAN_ELEMENT_THEORY>SGP4</MEAN_ELEMENT_THEORY></metadata><data><meanElements><EPOCH>2025-03-27T12:17:04.593408</EPOCH><MEAN_MOTION>14.49044716</MEAN_MOTION><ECCENTRICITY>.0016737</ECCENTRICITY><INCLINATION>86.3877</INCLINATION><RA_OF_ASC_NODE>246.1335</RA_OF_ASC_NODE><ARG_OF_PERICENTER>214.1338</ARG_OF_PERICENTER><MEAN_ANOMALY>145.8792</MEAN_ANOMALY></meanElements><tleParameters><EPHEMERIS_TYPE>0</EPHEMERIS_TYPE><CLASSIFICATION_TYPE>U</CLASSIFICATION_TYPE><NORAD_CAT_ID>25042</NORAD_CAT_ID><ELEMENT_SET_NO>999</ELEMENT_SET_NO><REV_AT_EPOCH>43713</REV_AT_EPOCH><BSTAR>.61887E-3</BSTAR><MEAN_MOTION_DOT>.2372E-4</MEAN_MOTION_DOT><MEAN_MOTION_DDOT>0</MEAN_MOTION_DDOT></tleParameters></data></segment></body></omm>
<omm id="CCSDS_OMM_VERS" version="2.0">
<header><CREATION_DATE/><ORIGINATOR/></header><body><segment><metadata><OBJECT_NAME>IRIDIUM 38</OBJECT_NAME><OBJECT_ID>1997-069E</OBJECT_ID><CENTER_NAME>EARTH</CENTER_NAME><REF_FRAME>TEME</REF_FRAME><TIME_SYSTEM>UTC</TIME_SYSTEM><MEAN_ELEMENT_THEORY>SGP4</MEAN_ELEMENT_THEORY></metadata><data><meanElements><EPOCH>2025-03-27T13:11:27.487680</EPOCH><MEAN_MOTION>14.38000737</MEAN_MOTION><ECCENTRICITY>.0002974</ECCENTRICITY><INCLINATION>86.3897</INCLINATION><RA_OF_ASC_NODE>267.5102</RA_OF_ASC_NODE><ARG_OF_PERICENTER>50.1380</ARG_OF_PERICENTER><MEAN_ANOMALY>310.0080</MEAN_ANOMALY></meanElements><tleParameters><EPHEMERIS_TYPE>0</EPHEMERIS_TYPE><CLASSIFICATION_TYPE>U</CLASSIFICATION_TYPE><NORAD_CAT_ID>25043</NORAD_CAT_ID><ELEMENT_SET_NO>999</ELEMENT_SET_NO><REV_AT_EPOCH>43422</REV_AT_EPOCH><BSTAR>.44372E-3</BSTAR><MEAN_MOTION_DOT>.1361E-4</MEAN_MOTION_DOT><MEAN_MOTION_DDOT>0</MEAN_MOTION_DDOT></tleParameters></data></segment></body></omm>
<omm id="CCSDS_OMM_VERS" version="2.0">
<header><CREATION_DATE/><ORIGINATOR/></header><body><segment><metadata><OBJECT_NAME>IRIDIUM 42</OBJECT_NAME><OBJECT_ID>1997-077A</OBJECT_ID><CENTER_NAME>EARTH</CENTER_NAME><REF_FRAME>TEME</REF_FRAME><TIME_SYSTEM>UTC</TIME_SYSTEM><MEAN_ELEMENT_THEORY>SGP4</MEAN_ELEMENT_THEORY></metadata><data><meanElements><EPOCH>2025-03-27T19:17:56.152032</EPOCH><MEAN_MOTION>14.36245833</MEAN_MOTION><ECCENTRICITY>.0002464</ECCENTRICITY><INCLINATION>86.3900</INCLINATION><RA_OF_ASC_NODE>273.4790</RA_OF_ASC_NODE><ARG_OF_PERICENTER>74.0775</ARG_OF_PERICENTER><MEAN_ANOMALY>286.0693</MEAN_ANOMALY></meanElements><tleParameters><EPHEMERIS_TYPE>0</EPHEMERIS_TYPE><CLASSIFICATION_TYPE>U</CLASSIFICATION_TYPE><NORAD_CAT_ID>25077</NORAD_CAT_ID><ELEMENT_SET_NO>999</ELEMENT_SET_NO><REV_AT_EPOCH>42951</REV_AT_EPOCH><BSTAR>.42226E-3</BSTAR><MEAN_MOTION_DOT>.1251E-4</MEAN_MOTION_DOT><MEAN_MOTION_DDOT>0</MEAN_MOTION_DDOT></tleParameters></data></segment></body></omm>
<omm id="CCSDS_OMM_VERS" version="2.0">
<header><CREATION_DATE/><ORIGINATOR/></header><body><segment><metadata><OBJECT_NAME>IRIDIUM 44</OBJECT_NAME><OBJECT_ID>1997-077B</OBJECT_ID><CENTER_NAME>EARTH</CENTER_NAME><REF_FRAME>TEME</REF_FRAME><TIME_SYSTEM>UTC</TIME_SYSTEM><MEAN_ELEMENT_THEORY>SGP4</MEAN_ELEMENT_THEORY></metadata><data><meanElements><EPOCH>2025-03-27T16:48:21.415968</EPOCH><MEAN_MOTION>14.40132149</MEAN_MOTION><ECCENTRICITY>.0000914</ECCENTRICITY><INCLINATION>86.3911</INCLINATION><RA_OF_ASC_NODE>255.6428</RA_OF_ASC_NODE><ARG_OF_PERICENTER>28.9491</ARG_OF_PERICENTER><MEAN_ANOMALY>331.1759</MEAN_ANOMALY></meanElements><tleParameters><EPHEMERIS_TYPE>0</EPHEMERIS_TYPE><CLASSIFICATION_TYPE>U</CLASSIFICATION_TYPE><NORAD_CAT_ID>25078</NORAD_CAT_ID><ELEMENT_SET_NO>999</ELEMENT_SET_NO><REV_AT_EPOCH>43200</REV_AT_EPOCH><BSTAR>.4547E-3</BSTAR><MEAN_MOTION_DOT>.1454E-4</MEAN_MOTION_DOT><MEAN_MOTION_DDOT>0</MEAN_MOTION_DDOT></tleParameters></data></segment></body></omm>
<omm id="CCSDS_OMM_VERS" version="2.0">
<header><CREATION_DATE/><ORIGINATOR/></header><body><segment><metadata><OBJECT_NAME>IRIDIUM 45</OBJECT_NAME><OBJECT_ID>1997-082A</OBJECT_ID><CENTER_NAME>EARTH</CENTER_NAME><REF_FRAME>TEME</REF_FRAME><TIME_SYSTEM>UTC</TIME_SYSTEM><MEAN_ELEMENT_THEORY>SGP4</MEAN_ELEMENT_THEORY></metadata><data><meanElements><EPOCH>2025-03-27T12:33:43.115616</EPOCH><MEAN_MOTION>15.18664534</MEAN_MOTION><ECCENTRICITY>.0121381</ECCENTRICITY><INCLINATION>86.3538</INCLINATION><RA_OF_ASC_NODE>87.4487</RA_OF_ASC_NODE><ARG_OF_PERICENTER>277.0135</ARG_OF_PERICENTER><MEAN_ANOMALY>81.7315</MEAN_ANOMALY></meanElements><tleParameters><EPHEMERIS_TYPE>0</EPHEMERIS_TYPE><CLASSIFICATION_TYPE>U</CLASSIFICATION_TYPE><NORAD_CAT_ID>25104</NORAD_CAT_ID><ELEMENT_SET_NO>999</ELEMENT_SET_NO><REV_AT_EPOCH>43963</REV_AT_EPOCH><BSTAR>.13536E-2</BSTAR><MEAN_MOTION_DOT>.34226E-3</MEAN_MOTION_DOT><MEAN_MOTION_DDOT>0</MEAN_MOTION_DDOT></tleParameters></data></segment></body></omm>
<omm id="CCSDS_OMM_VERS" version="2.0">
<header><CREATION_DATE/><ORIGINATOR/></header><body><segment><metadata><OBJECT_NAME>IRIDIUM 24</OBJECT_NAME><OBJECT_ID>1997-082B</OBJECT_ID><CENTER_NAME>EARTH</CENTER_NAME><REF_FRAME>TEME</REF_FRAME><TIME_SYSTEM>UTC</TIME_SYSTEM><MEAN_ELEMENT_THEORY>SGP4</MEAN_ELEMENT_THEORY></metadata><data><meanElements><EPOCH>2025-03-27T18:39:55.970496</EPOCH><MEAN_MOTION>14.41975525</MEAN_MOTION><ECCENTRICITY>.0011059</ECCENTRICITY><INCLINATION>86.3868</INCLINATION><RA_OF_ASC_NODE>114.8450</RA_OF_ASC_NODE><ARG_OF_PERICENTER>359.2066</ARG_OF_PERICENTER><MEAN_ANOMALY>0.9115</MEAN_ANOMALY></meanElements><tleParameters><EPHEMERIS_TYPE>0</EPHEMERIS_TYPE><CLASSIFICATION_TYPE>U</CLASSIFICATION_TYPE><NORAD_CAT_ID>25105</NORAD_CAT_ID><ELEMENT_SET_NO>999</ELEMENT_SET_NO><REV_AT_EPOCH>43173</REV_AT_EPOCH><BSTAR>.37651E-3</BSTAR><MEAN_MOTION_DOT>.1254E-4</MEAN_MOTION_DOT><MEAN_MOTION_DDOT>0</MEAN_MOTION_DDOT></tleParameters></data></segment></body></omm>
<omm id="CCSDS_OMM_VERS" version="2.0">
<header><CREATION_DATE/><ORIGINATOR/></header><body><segment><metadata><OBJECT_NAME>IRIDIUM 51</OBJECT_NAME><OBJECT_ID>1998-018A</OBJECT_ID><CENTER_NAME>EARTH</CENTER_NAME><REF_FRAME>TEME</REF_FRAME><TIME_SYSTEM>UTC</TIME_SYSTEM><MEAN_ELEMENT_THEORY>SGP4</MEAN_ELEMENT_THEORY></metadata><data><meanElements><EPOCH>2025-03-27T18:09:04.420224</EPOCH><MEAN_MOTION>15.33000509</MEAN_MOTION><ECCENTRICITY>.0098181</ECCENTRICITY><INCLINATION>86.3805</INCLINATION><RA_OF_ASC_NODE>95.9573</RA_OF_ASC_NODE><ARG_OF_PERICENTER>199.7313</ARG_OF_PERICENTER><MEAN_ANOMALY>160.0130</MEAN_ANOMALY></meanElements><tleParameters><EPHEMERIS_TYPE>0</EPHEMERIS_TYPE><CLASSIFICATION_TYPE>U</CLASSIFICATION_TYPE><NORAD_CAT_ID>25262</NORAD_CAT_ID><ELEMENT_SET_NO>999</ELEMENT_SET_NO><REV_AT_EPOCH>43474</REV_AT_EPOCH><BSTAR>.12639E-2</BSTAR><MEAN_MOTION_DOT>.47227E-3</MEAN_MOTION_DOT><MEAN_MOTION_DDOT>0</MEAN_MOTION_DDOT></tleParameters></data></segment></body></omm>
<omm id="CCSDS_OMM_VERS" version="2.0">
<header><CREATION_DATE/><ORIGINATOR/></header><body><segment><metadata><OBJECT_NAME>IRIDIUM 57</OBJECT_NAME><OBJECT_ID>1998-019B</OBJECT_ID><CENTER_NAME>EARTH</CENTER_NAME><REF_FRAME>TEME</REF_FRAME><TIME_SYSTEM>UTC</TIME_SYSTEM><MEAN_ELEMENT_THEORY>SGP4</MEAN_ELEMENT_THEORY></metadata><data><meanElements><EPOCH>2025-03-27T11:55:23.488896</EPOCH><MEAN_MOTION>14.35813983</MEAN_MOTION><ECCENTRICITY>.0002167</ECCENTRICITY><INCLINATION>86.4036</INCLINATION><RA_OF_ASC_NODE>179.4604</RA_OF_ASC_NODE><ARG_OF_PERICENTER>92.9791</ARG_OF_PERICENTER><MEAN_ANOMALY>267.1654</MEAN_ANOMALY></meanElements><tleParameters><EPHEMERIS_TYPE>0</EPHEMERIS_TYPE><CLASSIFICATION_TYPE>U</CLASSIFICATION_TYPE><NORAD_CAT_ID>25273</NORAD_CAT_ID><ELEMENT_SET_NO>999</ELEMENT_SET_NO><REV_AT_EPOCH>41306</REV_AT_EPOCH><BSTAR>.34879E-3</BSTAR><MEAN_MOTION_DOT>.1028E-4</MEAN_MOTION_DOT><MEAN_MOTION_DDOT>0</MEAN_MOTION_DDOT></tleParameters></data></segment></body></omm>

</ndm>
